CCSDS_OMM_VERS = 2.0
CREATION_DATE  = 
ORIGINATOR     = 

OBJECT_NAME    = STARLINK-35219
OBJECT_ID      = 2025-259X
CENTER_NAME    = EARTH
REF_FRAME      = TEME
TIME_SYSTEM    = UTC
MEAN_ELEMENT_THEORY = SGP/SGP4

EPOCH          = 2025-11-26T20:00:01.000224
MEAN_MOTION    = 15.73390336
ECCENTRICITY   = .0001557
INCLINATION    = 42.9998
RA_OF_ASC_NODE = 140.8102
ARG_OF_PERICENTER = 288.3334
MEAN_ANOMALY   = 173.4804

EPHEMERIS_TYPE = 0
CLASSIFICATION_TYPE = U
NORAD_CAT_ID   = 66443
ELEMENT_SET_NO = 999
REV_AT_EPOCH   = 361
BSTAR          = -.15239E-1
MEAN_MOTION_DOT = -.1894606E-1
MEAN_MOTION_DDOT = 0

CCSDS_OMM_VERS = 2.0
CREATION_DATE  = 
ORIGINATOR     = 

OBJECT_NAME    = STARLINK-35360
OBJECT_ID      = 2025-259Y
CENTER_NAME    = EARTH
REF_FRAME      = TEME
TIME_SYSTEM    = UTC
MEAN_ELEMENT_THEORY = SGP/SGP4

EPOCH          = 2025-11-26T20:00:01.000224
MEAN_MOTION    = 15.73392387
ECCENTRICITY   = .0001478
INCLINATION    = 42.9999
RA_OF_ASC_NODE = 140.7950
ARG_OF_PERICENTER = 285.1092
MEAN_ANOMALY   = 182.4637

EPHEMERIS_TYPE = 0
CLASSIFICATION_TYPE = U
NORAD_CAT_ID   = 66444
ELEMENT_SET_NO = 999
REV_AT_EPOCH   = 372
BSTAR          = -.15317E-1
MEAN_MOTION_DOT = -.1903035E-1
MEAN_MOTION_DDOT = 0

CCSDS_OMM_VERS = 2.0
CREATION_DATE  = 
ORIGINATOR     = 

OBJECT_NAME    = STARLINK-34698
OBJECT_ID      = 2025-259Z
CENTER_NAME    = EARTH
REF_FRAME      = TEME
TIME_SYSTEM    = UTC
MEAN_ELEMENT_THEORY = SGP/SGP4

EPOCH          = 2025-11-26T20:00:01.000224
MEAN_MOTION    = 15.73390946
ECCENTRICITY   = .0001535
INCLINATION    = 42.9999
RA_OF_ASC_NODE = 140.8047
ARG_OF_PERICENTER = 286.2674
MEAN_ANOMALY   = 177.4680

EPHEMERIS_TYPE = 0
CLASSIFICATION_TYPE = U
NORAD_CAT_ID   = 66445
ELEMENT_SET_NO = 999
REV_AT_EPOCH   = 361
BSTAR          = -.15271E-1
MEAN_MOTION_DOT = -.1898113E-1
MEAN_MOTION_DDOT = 0

CCSDS_OMM_VERS = 2.0
CREATION_DATE  = 
ORIGINATOR     = 

OBJECT_NAME    = STARLINK-34986
OBJECT_ID      = 2025-259AA
CENTER_NAME    = EARTH
REF_FRAME      = TEME
TIME_SYSTEM    = UTC
MEAN_ELEMENT_THEORY = SGP/SGP4

EPOCH          = 2025-11-26T20:00:01.000224
MEAN_MOTION    = 15.73393021
ECCENTRICITY   = .0001568
INCLINATION    = 43.0001
RA_OF_ASC_NODE = 140.7995
ARG_OF_PERICENTER = 281.4881
MEAN_ANOMALY   = 184.1603

EPHEMERIS_TYPE = 0
CLASSIFICATION_TYPE = U
NORAD_CAT_ID   = 66446
ELEMENT_SET_NO = 999
REV_AT_EPOCH   = 372
BSTAR          = -.15268E-1
MEAN_MOTION_DOT = -.1897961E-1
MEAN_MOTION_DDOT = 0

CCSDS_OMM_VERS = 2.0
CREATION_DATE  = 
ORIGINATOR     = 

OBJECT_NAME    = STARLINK-34851
OBJECT_ID      = 2025-259AB
CENTER_NAME    = EARTH
REF_FRAME      = TEME
TIME_SYSTEM    = UTC
MEAN_ELEMENT_THEORY = SGP/SGP4

EPOCH          = 2025-11-26T20:00:01.000224
MEAN_MOTION    = 15.73393785
ECCENTRICITY   = .0001615
INCLINATION    = 42.9998
RA_OF_ASC_NODE = 140.7901
ARG_OF_PERICENTER = 278.8302
MEAN_ANOMALY   = 190.6582

EPHEMERIS_TYPE = 0
CLASSIFICATION_TYPE = U
NORAD_CAT_ID   = 66447
ELEMENT_SET_NO = 999
REV_AT_EPOCH   = 361
BSTAR          = -.15339E-1
MEAN_MOTION_DOT = -.1905654E-1
MEAN_MOTION_DDOT = 0

CCSDS_OMM_VERS = 2.0
CREATION_DATE  = 
ORIGINATOR     = 

OBJECT_NAME    = STARLINK-35355
OBJECT_ID      = 2025-259AC
CENTER_NAME    = EARTH
REF_FRAME      = TEME
TIME_SYSTEM    = UTC
MEAN_ELEMENT_THEORY = SGP/SGP4

EPOCH          = 2025-11-26T20:00:01.000224
MEAN_MOTION    = 15.73397767
ECCENTRICITY   = .0001376
INCLINATION    = 42.9999
RA_OF_ASC_NODE = 140.7857
ARG_OF_PERICENTER = 275.8705
MEAN_ANOMALY   = 195.5258

EPHEMERIS_TYPE = 0
CLASSIFICATION_TYPE = U
NORAD_CAT_ID   = 66448
ELEMENT_SET_NO = 999
REV_AT_EPOCH   = 372
BSTAR          = -.15299E-1
MEAN_MOTION_DOT = -.1901373E-1
MEAN_MOTION_DDOT = 0

CCSDS_OMM_VERS = 2.0
CREATION_DATE  = 
ORIGINATOR     = 

OBJECT_NAME    = STARLINK-34720
OBJECT_ID      = 2025-259AD
CENTER_NAME    = EARTH
REF_FRAME      = TEME
TIME_SYSTEM    = UTC
MEAN_ELEMENT_THEORY = SGP/SGP4

EPOCH          = 2025-11-26T20:00:01.000224
MEAN_MOTION    = 15.73396707
ECCENTRICITY   = .0001365
INCLINATION    = 42.9998
RA_OF_ASC_NODE = 140.7805
ARG_OF_PERICENTER = 278.1870
MEAN_ANOMALY   = 195.1278

EPHEMERIS_TYPE = 0
CLASSIFICATION_TYPE = U
NORAD_CAT_ID   = 66449
ELEMENT_SET_NO = 999
REV_AT_EPOCH   = 361
BSTAR          = -.15295E-1
MEAN_MOTION_DOT = -.1900864E-1
MEAN_MOTION_DDOT = 0

CCSDS_OMM_VERS = 2.0
CREATION_DATE  = 
ORIGINATOR     = 

OBJECT_NAME    = STARLINK-35334
OBJECT_ID      = 2025-259AE
CENTER_NAME    = EARTH
REF_FRAME      = TEME
TIME_SYSTEM    = UTC
MEAN_ELEMENT_THEORY = SGP/SGP4

EPOCH          = 2025-11-26T20:00:01.000224
MEAN_MOTION    = 15.73395714
ECCENTRICITY   = .0001451
INCLINATION    = 42.9999
RA_OF_ASC_NODE = 140.7749
ARG_OF_PERICENTER = 282.7294
MEAN_ANOMALY   = 192.5030

EPHEMERIS_TYPE = 0
CLASSIFICATION_TYPE = U
NORAD_CAT_ID   = 66450
ELEMENT_SET_NO = 999
REV_AT_EPOCH   = 372
BSTAR          = -.15294E-1
MEAN_MOTION_DOT = -.1900761E-1
MEAN_MOTION_DDOT = 0

CCSDS_OMM_VERS = 2.0
CREATION_DATE  = 
ORIGINATOR     = 

OBJECT_NAME    = VIASAT-3 F2
OBJECT_ID      = 2025-261A
CENTER_NAME    = EARTH
REF_FRAME      = TEME
TIME_SYSTEM    = UTC
MEAN_ELEMENT_THEORY = SGP/SGP4

EPOCH          = 2025-11-24T18:52:49.001664
MEAN_MOTION    = 2.28339319
ECCENTRICITY   = .23399778
INCLINATION    = 5.5881
RA_OF_ASC_NODE = 294.0676
ARG_OF_PERICENTER = 182.3088
MEAN_ANOMALY   = 163.5235

EPHEMERIS_TYPE = 0
CLASSIFICATION_TYPE = U
NORAD_CAT_ID   = 66454
ELEMENT_SET_NO = 999
REV_AT_EPOCH   = 23
BSTAR          = 0
MEAN_MOTION_DOT = -.57E-6
MEAN_MOTION_DDOT = 0

CCSDS_OMM_VERS = 2.0
CREATION_DATE  = 
ORIGINATOR     = 

OBJECT_NAME    = ATLAS 5 CENTAUR R/B
OBJECT_ID      = 2025-261B
CENTER_NAME    = EARTH
REF_FRAME      = TEME
TIME_SYSTEM    = UTC
MEAN_ELEMENT_THEORY = SGP/SGP4

EPOCH          = 2025-11-24T11:43:19.202880
MEAN_MOTION    = 2.28256781
ECCENTRICITY   = .23299513
INCLINATION    = 6.1705
RA_OF_ASC_NODE = 293.4428
ARG_OF_PERICENTER = 182.8133
MEAN_ANOMALY   = 267.0678

EPHEMERIS_TYPE = 0
CLASSIFICATION_TYPE = U
NORAD_CAT_ID   = 66455
ELEMENT_SET_NO = 999
REV_AT_EPOCH   = 23
BSTAR          = 0
MEAN_MOTION_DOT = -.59E-6
MEAN_MOTION_DDOT = 0

CCSDS_OMM_VERS = 2.0
CREATION_DATE  = 
ORIGINATOR     = 

OBJECT_NAME    = STARLINK-35643
OBJECT_ID      = 2025-262A
CENTER_NAME    = EARTH
REF_FRAME      = TEME
TIME_SYSTEM    = UTC
MEAN_ELEMENT_THEORY = SGP/SGP4

EPOCH          = 2025-11-26T14:48:15.708672
MEAN_MOTION    = 15.84647709
ECCENTRICITY   = .0004923
INCLINATION    = 42.9974
RA_OF_ASC_NODE = 166.9016
ARG_OF_PERICENTER = 285.1167
MEAN_ANOMALY   = 74.9161

EPHEMERIS_TYPE = 0
CLASSIFICATION_TYPE = U
NORAD_CAT_ID   = 66456
ELEMENT_SET_NO = 999
REV_AT_EPOCH   = 304
BSTAR          = .13187E-2
MEAN_MOTION_DOT = .326193E-2
MEAN_MOTION_DDOT = 0

CCSDS_OMM_VERS = 2.0
CREATION_DATE  = 
ORIGINATOR     = 

OBJECT_NAME    = STARLINK-35466
OBJECT_ID      = 2025-262B
CENTER_NAME    = EARTH
REF_FRAME      = TEME
TIME_SYSTEM    = UTC
MEAN_ELEMENT_THEORY = SGP/SGP4

EPOCH          = 2025-11-26T00:00:05.999616
MEAN_MOTION    = 15.86210657
ECCENTRICITY   = .00018335
INCLINATION    = 42.9980
RA_OF_ASC_NODE = 170.6893
ARG_OF_PERICENTER = 283.3686
MEAN_ANOMALY   = 157.3627

EPHEMERIS_TYPE = 0
CLASSIFICATION_TYPE = U
NORAD_CAT_ID   = 66457
ELEMENT_SET_NO = 999
REV_AT_EPOCH   = 294
BSTAR          = -.54995513E-2
MEAN_MOTION_DOT = -.125471E-1
MEAN_MOTION_DDOT = 0

