STARLINK-35219          
1 66443U 25259X   25330.83334491 -.01894606  00000+0 -15239-1 0  9990
2 66443  42.9998 140.8102 0001557 288.3334 173.4804 15.73390336  3618
STARLINK-35360          
1 66444U 25259Y   25330.83334491 -.01903035  00000+0 -15317-1 0  9995
2 66444  42.9999 140.7950 0001478 285.1092 182.4637 15.73392387  3722
STARLINK-34698          
1 66445U 25259Z   25330.83334491 -.01898113  00000+0 -15271-1 0  9995
2 66445  42.9999 140.8047 0001535 286.2674 177.4680 15.73390946  3612
STARLINK-34986          
1 66446U 25259AA  25330.83334491 -.01897961  00000+0 -15268-1 0  9992
2 66446  43.0001 140.7995 0001568 281.4881 184.1603 15.73393021  3722
STARLINK-34851          
1 66447U 25259AB  25330.83334491 -.01905654  00000+0 -15339-1 0  9991
2 66447  42.9998 140.7901 0001615 278.8302 190.6582 15.73393785  3617
STARLINK-35355          
1 66448U 25259AC  25330.83334491 -.01901373  00000+0 -15299-1 0  9991
2 66448  42.9999 140.7857 0001376 275.8705 195.5258 15.73397767  3727
STARLINK-34720          
1 66449U 25259AD  25330.83334491 -.01900864  00000+0 -15295-1 0  9992
2 66449  42.9998 140.7805 0001365 278.1870 195.1278 15.73396707  3616
STARLINK-35334          
1 66450U 25259AE  25330.83334491 -.01900761  00000+0 -15294-1 0  9999
2 66450  42.9999 140.7749 0001451 282.7294 192.5030 15.73395714  3729
VIASAT-3 F2             
1 66454U 25261A   25328.78667826 -.00000057  00000+0  00000+0 0  9992
2 66454   5.5881 294.0676 2339977 182.3088 163.5235  2.28339319   238
ATLAS 5 CENTAUR R/B     
1 66455U 25261B   25328.48841670 -.00000059  00000+0  00000+0 0  9993
2 66455   6.1705 293.4428 2329951 182.8133 267.0678  2.28256781   238
STARLINK-35643          
1 66456U 25262A   25330.61684848  .00326193  00000+0  13187-2 0  9997
2 66456  42.9974 166.9016 0004923 285.1167  74.9161 15.84647709  3047
STARLINK-35466          
1 66457U 25262B   25330.00006944 -.01254710  00000+0 -54996-2 0  9997
2 66457  42.9980 170.6893 0001833 283.3686 157.3627 15.86210657  2944
